{
  "links" : {
    "next" : "https://api.nasa.gov/neo/rest/v1/feed?start_date=1996-01-16&end_date=1996-01-16&detailed=true&api_key=t0TVs3DtDT2H8Oy2Zy8m2eVrNsAVKAexjcZXUckd",
    "prev" : "https://api.nasa.gov/neo/rest/v1/feed?start_date=1996-01-14&end_date=1996-01-14&detailed=true&api_key=t0TVs3DtDT2H8Oy2Zy8m2eVrNsAVKAexjcZXUckd",
    "self" : "https://api.nasa.gov/neo/rest/v1/feed?start_date=1996-01-15&end_date=1996-01-15&detailed=true&api_key=t0TVs3DtDT2H8Oy2Zy8m2eVrNsAVKAexjcZXUckd"
  },
  "element_count" : 6,
  "near_earth_objects" : {
    "1996-01-15" : [ {
      "links" : {
        "self" : "https://api.nasa.gov/neo/rest/v1/neo/3400310?api_key=t0TVs3DtDT2H8Oy2Zy8m2eVrNsAVKAexjcZXUckd"
      },
      "neo_reference_id" : "3400310",
      "name" : "(2008 BX2)",
      "nasa_jpl_url" : "http://ssd.jpl.nasa.gov/sbdb.cgi?sstr=3400310",
      "absolute_magnitude_h" : 23.6,
      "estimated_diameter" : {
        "kilometers" : {
          "estimated_diameter_min" : 0.0506471459,
          "estimated_diameter_max" : 0.1132504611
        },
        "meters" : {
          "estimated_diameter_min" : 50.6471458835,
          "estimated_diameter_max" : 113.2504610618
        },
        "miles" : {
          "estimated_diameter_min" : 0.0314706677,
          "estimated_diameter_max" : 0.0703705522
        },
        "feet" : {
          "estimated_diameter_min" : 166.1651821003,
          "estimated_diameter_max" : 371.5566426699
        }
      },
      "is_potentially_hazardous_asteroid" : false,
      "close_approach_data" : [ {
        "close_approach_date" : "1996-01-15",
        "epoch_date_close_approach" : 821692800000,
        "relative_velocity" : {
          "kilometers_per_second" : "24.8779835635",
          "kilometers_per_hour" : "89560.7408286608",
          "miles_per_hour" : "55649.561433231"
        },
        "miss_distance" : {
          "astronomical" : "0.4778307425",
          "lunar" : "185.876159668",
          "kilometers" : "71482464",
          "miles" : "44417144"
        },
        "orbiting_body" : "Earth"
      } ],
      "orbital_data" : {
        "orbit_id" : "21",
        "orbit_determination_date" : "2017-04-06 09:04:38",
        "orbit_uncertainty" : "1",
        "minimum_orbit_intersection" : ".0316225",
        "jupiter_tisserand_invariant" : "6.832",
        "epoch_osculation" : "2458000.5",
        "eccentricity" : ".3410722161572659",
        "semi_major_axis" : ".8572603824767726",
        "inclination" : "3.137522754552109",
        "ascending_node_longitude" : "336.6215024403392",
        "orbital_period" : "289.9129114501187",
        "perihelion_distance" : ".5648726840015944",
        "perihelion_argument" : "350.6340811849042",
        "aphelion_distance" : "1.149648080951951",
        "perihelion_time" : "2458144.613443908876",
        "mean_anomaly" : "181.0468117901618",
        "mean_motion" : "1.241752215171487",
        "equinox" : "J2000"
      }
    }, {
      "links" : {
        "self" : "https://api.nasa.gov/neo/rest/v1/neo/3439813?api_key=t0TVs3DtDT2H8Oy2Zy8m2eVrNsAVKAexjcZXUckd"
      },
      "neo_reference_id" : "3439813",
      "name" : "(2008 WK32)",
      "nasa_jpl_url" : "http://ssd.jpl.nasa.gov/sbdb.cgi?sstr=3439813",
      "absolute_magnitude_h" : 19.2,
      "estimated_diameter" : {
        "kilometers" : {
          "estimated_diameter_min" : 0.3841978911,
          "estimated_diameter_max" : 0.8590926012
        },
        "meters" : {
          "estimated_diameter_min" : 384.1978910643,
          "estimated_diameter_max" : 859.0926012318
        },
        "miles" : {
          "estimated_diameter_min" : 0.2387294278,
          "estimated_diameter_max" : 0.5338152287
        },
        "feet" : {
          "estimated_diameter_min" : 1260.4918089193,
          "estimated_diameter_max" : 2818.5453698252
        }
      },
      "is_potentially_hazardous_asteroid" : false,
      "close_approach_data" : [ {
        "close_approach_date" : "1996-01-15",
        "epoch_date_close_approach" : 821692800000,
        "relative_velocity" : {
          "kilometers_per_second" : "21.1588162707",
          "kilometers_per_hour" : "76171.7385745898",
          "miles_per_hour" : "47330.1561159722"
        },
        "miss_distance" : {
          "astronomical" : "0.4602401315",
          "lunar" : "179.0334014893",
          "kilometers" : "68850944",
          "miles" : "42781992"
        },
        "orbiting_body" : "Earth"
      } ],
      "orbital_data" : {
        "orbit_id" : "47",
        "orbit_determination_date" : "2016-09-29 06:46:17",
        "orbit_uncertainty" : "0",
        "minimum_orbit_intersection" : ".068965",
        "jupiter_tisserand_invariant" : "4.651",
        "epoch_osculation" : "2457600.5",
        "eccentricity" : ".378963254200687",
        "semi_major_axis" : "1.396324485890176",
        "inclination" : "15.45109082614028",
        "ascending_node_longitude" : "58.80709475446888",
        "orbital_period" : "602.6677577209846",
        "perihelion_distance" : ".8671688147971337",
        "perihelion_argument" : "139.8445496862943",
        "aphelion_distance" : "1.925480156983219",
        "perihelion_time" : "2457374.160242054060",
        "mean_anomaly" : "135.2027079873452",
        "mean_motion" : ".5973440513249892",
        "equinox" : "J2000"
      }
    }, {
      "links" : {
        "self" : "https://api.nasa.gov/neo/rest/v1/neo/3644343?api_key=t0TVs3DtDT2H8Oy2Zy8m2eVrNsAVKAexjcZXUckd"
      },
      "neo_reference_id" : "3644343",
      "name" : "(2013 MY6)",
      "nasa_jpl_url" : "http://ssd.jpl.nasa.gov/sbdb.cgi?sstr=3644343",
      "absolute_magnitude_h" : 17.9,
      "estimated_diameter" : {
        "kilometers" : {
          "estimated_diameter_min" : 0.6991252322,
          "estimated_diameter_max" : 1.5632915441
        },
        "meters" : {
          "estimated_diameter_min" : 699.1252322458,
          "estimated_diameter_max" : 1563.2915440869
        },
        "miles" : {
          "estimated_diameter_min" : 0.4344161447,
          "estimated_diameter_max" : 0.97138403
        },
        "feet" : {
          "estimated_diameter_min" : 2293.7180269613,
          "estimated_diameter_max" : 5128.9094295021
        }
      },
      "is_potentially_hazardous_asteroid" : false,
      "close_approach_data" : [ {
        "close_approach_date" : "1996-01-15",
        "epoch_date_close_approach" : 821692800000,
        "relative_velocity" : {
          "kilometers_per_second" : "33.9284382785",
          "kilometers_per_hour" : "122142.3778024333",
          "miles_per_hour" : "75894.5235850731"
        },
        "miss_distance" : {
          "astronomical" : "0.2612221979",
          "lunar" : "101.6154327393",
          "kilometers" : "39078284",
          "miles" : "24282120"
        },
        "orbiting_body" : "Earth"
      } ],
      "orbital_data" : {
        "orbit_id" : "37",
        "orbit_determination_date" : "2017-07-04 06:19:06",
        "orbit_uncertainty" : "1",
        "minimum_orbit_intersection" : ".217108",
        "jupiter_tisserand_invariant" : "3.970",
        "epoch_osculation" : "2458000.5",
        "eccentricity" : ".5029366679583709",
        "semi_major_axis" : "1.532200384379732",
        "inclination" : "52.23787326601719",
        "ascending_node_longitude" : "124.9900565678394",
        "orbital_period" : "692.7424118313542",
        "perihelion_distance" : ".7616006284152548",
        "perihelion_argument" : "9.78309393128923",
        "aphelion_distance" : "2.30280014034421",
        "perihelion_time" : "2457725.082538191980",
        "mean_anomaly" : "143.1272065308816",
        "mean_motion" : ".5196736822396848",
        "equinox" : "J2000"
      }
    } ]
  }
}